CCSDS_OMM_VERS = 2.0
CREATION_DATE  = 
ORIGINATOR     = 

OBJECT_NAME    = STARLINK-35610
OBJECT_ID      = 2025-259G
CENTER_NAME    = EARTH
REF_FRAME      = TEME
TIME_SYSTEM    = UTC
MEAN_ELEMENT_THEORY = SGP/SGP4

EPOCH          = 2025-11-29T04:00:01.998720
MEAN_MOTION    = 15.63521706
ECCENTRICITY   = .0001773
INCLINATION    = 42.9992
RA_OF_ASC_NODE = 126.8645
ARG_OF_PERICENTER = 266.5075
MEAN_ANOMALY   = 37.7659

EPHEMERIS_TYPE = 0
CLASSIFICATION_TYPE = U
NORAD_CAT_ID   = 66428
ELEMENT_SET_NO = 999
REV_AT_EPOCH   = 409
BSTAR          = -.24466E-1
MEAN_MOTION_DOT = -.204295E-1
MEAN_MOTION_DDOT = 0

CCSDS_OMM_VERS = 2.0
CREATION_DATE  = 
ORIGINATOR     = 

OBJECT_NAME    = STARLINK-35533
OBJECT_ID      = 2025-259H
CENTER_NAME    = EARTH
REF_FRAME      = TEME
TIME_SYSTEM    = UTC
MEAN_ELEMENT_THEORY = SGP/SGP4

EPOCH          = 2025-11-29T04:00:01.998720
MEAN_MOTION    = 15.63517570
ECCENTRICITY   = .0001713
INCLINATION    = 42.9995
RA_OF_ASC_NODE = 126.8583
ARG_OF_PERICENTER = 268.9314
MEAN_ANOMALY   = 37.2628

EPHEMERIS_TYPE = 0
CLASSIFICATION_TYPE = U
NORAD_CAT_ID   = 66429
ELEMENT_SET_NO = 999
REV_AT_EPOCH   = 409
BSTAR          = -.24421E-1
MEAN_MOTION_DOT = -.2039333E-1
MEAN_MOTION_DDOT = 0

CCSDS_OMM_VERS = 2.0
CREATION_DATE  = 
ORIGINATOR     = 

OBJECT_NAME    = STARLINK-35470
OBJECT_ID      = 2025-259J
CENTER_NAME    = EARTH
REF_FRAME      = TEME
TIME_SYSTEM    = UTC
MEAN_ELEMENT_THEORY = SGP/SGP4

EPOCH          = 2025-11-29T04:00:01.998720
MEAN_MOTION    = 15.63514778
ECCENTRICITY   = .0001816
INCLINATION    = 42.9994
RA_OF_ASC_NODE = 126.8546
ARG_OF_PERICENTER = 267.5949
MEAN_ANOMALY   = 40.5162

EPHEMERIS_TYPE = 0
CLASSIFICATION_TYPE = U
NORAD_CAT_ID   = 66430
ELEMENT_SET_NO = 999
REV_AT_EPOCH   = 409
BSTAR          = -.24362E-1
MEAN_MOTION_DOT = -.203492E-1
MEAN_MOTION_DDOT = 0

CCSDS_OMM_VERS = 2.0
CREATION_DATE  = 
ORIGINATOR     = 

OBJECT_NAME    = STARLINK-35439
OBJECT_ID      = 2025-259K
CENTER_NAME    = EARTH
REF_FRAME      = TEME
TIME_SYSTEM    = UTC
MEAN_ELEMENT_THEORY = SGP/SGP4

EPOCH          = 2025-11-29T04:00:01.998720
MEAN_MOTION    = 15.63513851
ECCENTRICITY   = .0001753
INCLINATION    = 42.9994
RA_OF_ASC_NODE = 126.8486
ARG_OF_PERICENTER = 267.4869
MEAN_ANOMALY   = 42.5428

EPHEMERIS_TYPE = 0
CLASSIFICATION_TYPE = U
NORAD_CAT_ID   = 66431
ELEMENT_SET_NO = 999
REV_AT_EPOCH   = 409
BSTAR          = -.24357E-1
MEAN_MOTION_DOT = -.2034405E-1
MEAN_MOTION_DDOT = 0

CCSDS_OMM_VERS = 2.0
CREATION_DATE  = 
ORIGINATOR     = 

OBJECT_NAME    = STARLINK-35446
OBJECT_ID      = 2025-259L
CENTER_NAME    = EARTH
REF_FRAME      = TEME
TIME_SYSTEM    = UTC
MEAN_ELEMENT_THEORY = SGP/SGP4

EPOCH          = 2025-11-29T04:00:01.998720
MEAN_MOTION    = 15.63516592
ECCENTRICITY   = .0001828
INCLINATION    = 42.9994
RA_OF_ASC_NODE = 126.8435
ARG_OF_PERICENTER = 269.0173
MEAN_ANOMALY   = 42.9285

EPHEMERIS_TYPE = 0
CLASSIFICATION_TYPE = U
NORAD_CAT_ID   = 66432
ELEMENT_SET_NO = 999
REV_AT_EPOCH   = 409
BSTAR          = -.2442E-1
MEAN_MOTION_DOT = -.2039249E-1
MEAN_MOTION_DDOT = 0

CCSDS_OMM_VERS = 2.0
CREATION_DATE  = 
ORIGINATOR     = 

OBJECT_NAME    = STARLINK-35457
OBJECT_ID      = 2025-259M
CENTER_NAME    = EARTH
REF_FRAME      = TEME
TIME_SYSTEM    = UTC
MEAN_ELEMENT_THEORY = SGP/SGP4

EPOCH          = 2025-11-29T04:00:01.998720
MEAN_MOTION    = 15.63517576
ECCENTRICITY   = .0001747
INCLINATION    = 42.9993
RA_OF_ASC_NODE = 126.8400
ARG_OF_PERICENTER = 268.2904
MEAN_ANOMALY   = 45.5712

EPHEMERIS_TYPE = 0
CLASSIFICATION_TYPE = U
NORAD_CAT_ID   = 66433
ELEMENT_SET_NO = 999
REV_AT_EPOCH   = 409
BSTAR          = -.24407E-1
MEAN_MOTION_DOT = -.2038306E-1
MEAN_MOTION_DDOT = 0

CCSDS_OMM_VERS = 2.0
CREATION_DATE  = 
ORIGINATOR     = 

OBJECT_NAME    = STARLINK-35389
OBJECT_ID      = 2025-259N
CENTER_NAME    = EARTH
REF_FRAME      = TEME
TIME_SYSTEM    = UTC
MEAN_ELEMENT_THEORY = SGP/SGP4

EPOCH          = 2025-11-29T04:00:01.998720
MEAN_MOTION    = 15.63513236
ECCENTRICITY   = .0001744
INCLINATION    = 42.9993
RA_OF_ASC_NODE = 126.8352
ARG_OF_PERICENTER = 269.2348
MEAN_ANOMALY   = 46.5463

EPHEMERIS_TYPE = 0
CLASSIFICATION_TYPE = U
NORAD_CAT_ID   = 66434
ELEMENT_SET_NO = 999
REV_AT_EPOCH   = 409
BSTAR          = -.24347E-1
MEAN_MOTION_DOT = -.2033626E-1
MEAN_MOTION_DDOT = 0

CCSDS_OMM_VERS = 2.0
CREATION_DATE  = 
ORIGINATOR     = 

OBJECT_NAME    = STARLINK-35502
OBJECT_ID      = 2025-259P
CENTER_NAME    = EARTH
REF_FRAME      = TEME
TIME_SYSTEM    = UTC
MEAN_ELEMENT_THEORY = SGP/SGP4

EPOCH          = 2025-11-29T04:00:01.998720
MEAN_MOTION    = 15.63517417
ECCENTRICITY   = .0001841
INCLINATION    = 42.9995
RA_OF_ASC_NODE = 126.8309
ARG_OF_PERICENTER = 270.3171
MEAN_ANOMALY   = 47.3787

EPHEMERIS_TYPE = 0
CLASSIFICATION_TYPE = U
NORAD_CAT_ID   = 66435
ELEMENT_SET_NO = 999
REV_AT_EPOCH   = 409
BSTAR          = -.2441E-1
MEAN_MOTION_DOT = -.2038596E-1
MEAN_MOTION_DDOT = 0

CCSDS_OMM_VERS = 2.0
CREATION_DATE  = 
ORIGINATOR     = 

OBJECT_NAME    = STARLINK-35501
OBJECT_ID      = 2025-259Q
CENTER_NAME    = EARTH
REF_FRAME      = TEME
TIME_SYSTEM    = UTC
MEAN_ELEMENT_THEORY = SGP/SGP4

EPOCH          = 2025-11-29T04:00:01.998720
MEAN_MOTION    = 15.63514138
ECCENTRICITY   = .0001835
INCLINATION    = 42.9992
RA_OF_ASC_NODE = 126.8205
ARG_OF_PERICENTER = 269.5208
MEAN_ANOMALY   = 52.0100

EPHEMERIS_TYPE = 0
CLASSIFICATION_TYPE = U
NORAD_CAT_ID   = 66436
ELEMENT_SET_NO = 999
REV_AT_EPOCH   = 409
BSTAR          = -.24349E-1
MEAN_MOTION_DOT = -.2033893E-1
MEAN_MOTION_DDOT = 0

CCSDS_OMM_VERS = 2.0
CREATION_DATE  = 
ORIGINATOR     = 

OBJECT_NAME    = STARLINK-35474
OBJECT_ID      = 2025-259R
CENTER_NAME    = EARTH
REF_FRAME      = TEME
TIME_SYSTEM    = UTC
MEAN_ELEMENT_THEORY = SGP/SGP4

EPOCH          = 2025-11-29T04:00:01.998720
MEAN_MOTION    = 15.63517664
ECCENTRICITY   = .0001936
INCLINATION    = 42.9997
RA_OF_ASC_NODE = 126.8159
ARG_OF_PERICENTER = 270.4765
MEAN_ANOMALY   = 52.9703

EPHEMERIS_TYPE = 0
CLASSIFICATION_TYPE = U
NORAD_CAT_ID   = 66437
ELEMENT_SET_NO = 999
REV_AT_EPOCH   = 409
BSTAR          = -.24426E-1
MEAN_MOTION_DOT = -.2039895E-1
MEAN_MOTION_DDOT = 0

CCSDS_OMM_VERS = 2.0
CREATION_DATE  = 
ORIGINATOR     = 

OBJECT_NAME    = STARLINK-34681
OBJECT_ID      = 2025-259S
CENTER_NAME    = EARTH
REF_FRAME      = TEME
TIME_SYSTEM    = UTC
MEAN_ELEMENT_THEORY = SGP/SGP4

EPOCH          = 2025-11-29T04:00:01.998720
MEAN_MOTION    = 15.63514319
ECCENTRICITY   = .000183
INCLINATION    = 42.9994
RA_OF_ASC_NODE = 126.8110
ARG_OF_PERICENTER = 268.6054
MEAN_ANOMALY   = 56.7599

EPHEMERIS_TYPE = 0
CLASSIFICATION_TYPE = U
NORAD_CAT_ID   = 66438
ELEMENT_SET_NO = 999
REV_AT_EPOCH   = 399
BSTAR          = -.24354E-1
MEAN_MOTION_DOT = -.2034276E-1
MEAN_MOTION_DDOT = 0

CCSDS_OMM_VERS = 2.0
CREATION_DATE  = 
ORIGINATOR     = 

OBJECT_NAME    = STARLINK-35327
OBJECT_ID      = 2025-259T
CENTER_NAME    = EARTH
REF_FRAME      = TEME
TIME_SYSTEM    = UTC
MEAN_ELEMENT_THEORY = SGP/SGP4

EPOCH          = 2025-11-29T04:00:01.998720
MEAN_MOTION    = 15.63513789
ECCENTRICITY   = .0001771
INCLINATION    = 42.9994
RA_OF_ASC_NODE = 126.8273
ARG_OF_PERICENTER = 268.9651
MEAN_ANOMALY   = 50.6497

EPHEMERIS_TYPE = 0
CLASSIFICATION_TYPE = U
NORAD_CAT_ID   = 66439
ELEMENT_SET_NO = 999
REV_AT_EPOCH   = 409
BSTAR          = -.24352E-1
MEAN_MOTION_DOT = -.2034041E-1
MEAN_MOTION_DDOT = 0

