STARLINK-35610          
1 66428U 25259G   25333.16668980 -.02042950  00000+0 -24466-1 0  9995
2 66428  42.9992 126.8645 0001773 266.5075  37.7659 15.63521706  4090
STARLINK-35533          
1 66429U 25259H   25333.16668980 -.02039333  00000+0 -24421-1 0  9998
2 66429  42.9995 126.8583 0001713 268.9314  37.2628 15.63517570  4096
STARLINK-35470          
1 66430U 25259J   25333.16668980 -.02034920  00000+0 -24362-1 0  9991
2 66430  42.9994 126.8546 0001816 267.5949  40.5162 15.63514778  4096
STARLINK-35439          
1 66431U 25259K   25333.16668980 -.02034405  00000+0 -24357-1 0  9994
2 66431  42.9994 126.8486 0001753 267.4869  42.5428 15.63513851  4098
STARLINK-35446          
1 66432U 25259L   25333.16668980 -.02039249  00000+0 -24420-1 0  9997
2 66432  42.9994 126.8435 0001828 269.0173  42.9285 15.63516592  4092
STARLINK-35457          
1 66433U 25259M   25333.16668980 -.02038306  00000+0 -24407-1 0  9996
2 66433  42.9993 126.8400 0001747 268.2904  45.5712 15.63517576  4094
STARLINK-35389          
1 66434U 25259N   25333.16668980 -.02033626  00000+0 -24347-1 0  9990
2 66434  42.9993 126.8352 0001744 269.2348  46.5463 15.63513236  4094
STARLINK-35502          
1 66435U 25259P   25333.16668980 -.02038596  00000+0 -24410-1 0  9993
2 66435  42.9995 126.8309 0001841 270.3171  47.3787 15.63517417  4097
STARLINK-35501          
1 66436U 25259Q   25333.16668980 -.02033893  00000+0 -24349-1 0  9990
2 66436  42.9992 126.8205 0001835 269.5208  52.0100 15.63514138  4093
STARLINK-35474          
1 66437U 25259R   25333.16668980 -.02039895  00000+0 -24426-1 0  9995
2 66437  42.9997 126.8159 0001936 270.4765  52.9703 15.63517664  4093
STARLINK-34681          
1 66438U 25259S   25333.16668980 -.02034276  00000+0 -24354-1 0  9994
2 66438  42.9994 126.8110 0001830 268.6054  56.7599 15.63514319  3998
STARLINK-35327          
1 66439U 25259T   25333.16668980 -.02034041  00000+0 -24352-1 0  9993
2 66439  42.9994 126.8273 0001771 268.9651  50.6497 15.63513789  4091
